SWARM A                 
1 39452U 13067B   26168.80036391  .00008873  00000+0  15239-3 0  9991
2 39452  87.3321  56.0140 0003000  95.2930 264.8674 15.50964576706341
SWARM C                 
1 39453U 13067C   26168.80025130  .00008793  00000+0  15102-3 0  9991
2 39453  87.3320  54.5951 0002994  95.5374 264.6228 15.50963004706304
BRITE-CA1 (TORONTO)     
1 40020U 14033L   26168.58134023  .00000574  00000+0  94199-4 0  9997
2 40020  97.9740 297.5019 0077216 275.7297  83.5111 14.72677156642275
OCO 2                   
1 40059U 14035A   26168.84217745  .00000307  00000+0  78184-4 0  9993
2 40059  98.2017 110.1252 0001501  84.8190 275.3180 14.57111688636144
BRITE-PL2 (HEWELIUSZ)   
1 40119U 14049B   26168.77489782  .00001507  00000+0  14446-3 0  9992
2 40119  97.9098 280.7793 0015304 106.7717 253.5183 14.94594969641533
MMS 1                   
1 40482U 15011A   26168.91668980 -.00000746  00000+0  00000+0 0  9992
2 40482  72.2033 348.7585 8323652 167.4626  12.8846  0.28355665  1389
MMS 2                   
1 40483U 15011B   26168.83335647 -.00000749  00000+0  00000+0 0  9998
2 40483  72.1979 348.7682 8324380 167.4686   4.3718  0.28352992  1385
MMS 3                   
1 40484U 15011C   26168.83335647 -.00000749  00000+0  00000+0 0  9999
2 40484  72.1971 348.7685 8323173 167.4709   4.3557  0.28352934  1383
MMS 4                   
1 40485U 15011D   26168.83335647 -.00000749  00000+0  00000+0 0  9990
2 40485  72.1973 348.7684 8323174 167.4709   4.3557  0.28353045  1380
ASTROSAT                
1 40930U 15052A   26168.02421202  .00001422  00000+0  91470-4 0  9998
2 40930   5.9955 156.5222 0007811  29.1364 330.9199 14.82507303579802
DAMPE                   
1 41173U 15078A   26168.82208935  .00000640  00000+0  24072-4 0  9995
2 41173  97.4550 174.2919 0013810  74.8994 285.3774 15.30785214584644
PISAT                   
1 41784U 16059B   26168.48459062  .00000656  00000+0  11936-3 0  9995
2 41784  97.8179 168.9246 0028407 201.7782 158.2218 14.68983786519788
HXMT (HUIYAN)           
1 42758U 17034A   26168.52902116  .00002022  00000+0  10687-3 0  9990
2 42758  43.0125 181.1377 0030628 149.3559 210.9086 15.18478619497710
FLYING LAPTOP           
1 42831U 17042G   26168.85210081  .00003020  00000+0  23924-3 0  9997
2 42831  97.4687 324.3590 0019585 119.4081 240.9102 15.01150181486558
ZHANGHENG 1-01 (CSES-1) 
1 43194U 18015C   26168.86274709  .00005862  00000+0  26807-3 0  9998
2 43194  97.6873 334.5331 0017060 263.8516  96.0775 15.20818674464741
SALSAT                  
1 46495U 20068K   26168.53797512  .00006219  00000+0  21821-3 0  9990
2 46495  97.8847 171.6239 0008040 306.6544  53.3955 15.29803905315418
IXPE                    
1 49954U 21121A   26168.83335647  .00012910  00000+0  70967-3 0  9994
2 49954   0.2310 312.6965 0007209  90.9696 146.4050 15.10258330  5663
SMILE                   
1 69123U 26109A   26158.38327019 -.00000041  00000+0 -36778-3 0  9994
2 69123  69.9787 209.3069 3310191 288.5544  45.7342  7.54049028  2480
