OBJECT_NAME,OBJECT_ID,EPOCH,MEAN_MOTION,ECCENTRICITY,INCLINATION,RA_OF_ASC_NODE,ARG_OF_PERICENTER,MEAN_ANOMALY,EPHEMERIS_TYPE,CLASSIFICATION_TYPE,NORAD_CAT_ID,ELEMENT_SET_NO,REV_AT_EPOCH,BSTAR,MEAN_MOTION_DOT,MEAN_MOTION_DDOT
SWARM A,2013-067B,2026-06-17T19:12:31.441824,15.50964576,.0003,87.3321,56.0140,95.2930,264.8674,0,U,39452,999,70634,.15239E-3,.8873E-4,0
SWARM C,2013-067C,2026-06-17T19:12:21.712320,15.50963004,.0002994,87.3320,54.5951,95.5374,264.6228,0,U,39453,999,70630,.15102E-3,.8793E-4,0
BRITE-CA1 (TORONTO),2014-033L,2026-06-17T13:57:07.795872,14.72677156,.0077216,97.9740,297.5019,275.7297,83.5111,0,U,40020,999,64227,.94199E-4,.574E-5,0
OCO 2,2014-035A,2026-06-17T20:12:44.131680,14.57111688,.0001501,98.2017,110.1252,84.8190,275.3180,0,U,40059,999,63614,.78184E-4,.307E-5,0
BRITE-PL2 (HEWELIUSZ),2014-049B,2026-06-17T18:35:51.171648,14.94594969,.0015304,97.9098,280.7793,106.7717,253.5183,0,U,40119,999,64153,.14446E-3,.1507E-4,0
MMS 1,2015-011A,2026-06-17T22:00:01.998720,0.28355665,.8323652,72.2033,348.7585,167.4626,12.8846,0,U,40482,999,138,0,-.746E-5,0
MMS 2,2015-011B,2026-06-17T20:00:01.999008,0.28352992,.832438,72.1979,348.7682,167.4686,4.3718,0,U,40483,999,138,0,-.749E-5,0
MMS 3,2015-011C,2026-06-17T20:00:01.999008,0.28352934,.8323173,72.1971,348.7685,167.4709,4.3557,0,U,40484,999,138,0,-.749E-5,0
MMS 4,2015-011D,2026-06-17T20:00:01.999008,0.28353045,.8323174,72.1973,348.7684,167.4709,4.3557,0,U,40485,999,138,0,-.749E-5,0
ASTROSAT,2015-052A,2026-06-17T00:34:51.918528,14.82507303,.00078112,5.9955,156.5222,29.1364,330.9199,0,U,40930,999,57980,.9146995E-4,.1422E-4,0
DAMPE,2015-078A,2026-06-17T19:43:48.519840,15.30785214,.001381,97.4550,174.2919,74.8994,285.3774,0,U,41173,999,58464,.24072E-4,.64E-5,0
PISAT,2016-059B,2026-06-17T11:37:48.629568,14.68983786,.00284077,97.8179,168.9246,201.7782,158.2218,0,U,41784,999,51978,.11936225E-3,.656E-5,0
HXMT (HUIYAN),2017-034A,2026-06-17T12:41:47.428224,15.18478619,.00306289,43.0125,181.1377,149.3559,210.9086,0,U,42758,999,49771,.10687434E-3,.2022E-4,0
FLYING LAPTOP,2017-042G,2026-06-17T20:27:01.509984,15.01150181,.0019585,97.4687,324.3590,119.4081,240.9102,0,U,42831,999,48655,.23924E-3,.302E-4,0
ZHANGHENG 1-01 (CSES-1),2018-015C,2026-06-17T20:42:21.348576,15.20818674,.001706,97.6873,334.5331,263.8516,96.0775,0,U,43194,999,46474,.26807E-3,.5862E-4,0
SALSAT,2020-068K,2026-06-17T12:54:41.050368,15.29803905,.000804,97.8847,171.6239,306.6544,53.3955,0,U,46495,999,31541,.21821E-3,.6219E-4,0
IXPE,2021-121A,2026-06-17T20:00:01.999008,15.10258330,.0007209,0.2310,312.6965,90.9696,146.4050,0,U,49954,999,566,.70967E-3,.1291E-3,0
SMILE,2026-109A,2026-06-07T09:11:54.544416,7.54049028,.3310191,69.9787,209.3069,288.5544,45.7342,0,U,69123,999,248,-.36778157E-3,-.41E-6,0
